{
  "type": "FeatureCollection",
  "features": [
    {
      "type": "Feature",
      "properties": {
        "norad_id": 57400,
        "name": "TIANMU-1 08",
        "group": "weather",
        "lat": 60.520310276450246,
        "lon": -134.20440698756715,
        "alt_km": 471.31429762603875,
        "timestamp": "2025-12-08T23:34:03.612846+00:00",
        "meta_object_name": "TIANMU-1 08",
        "meta_object_id": "2023-101B",
        "meta_epoch": "2025-12-08T15:11:32.518464",
        "meta_mean_motion": 15.27965476,
        "meta_eccentricity": 0.00075632,
        "meta_inclination": 97.2866,
        "meta_ra_of_asc_node": 32.3723,
        "meta_arg_of_pericenter": 95.2963,
        "meta_mean_anomaly": 264.914,
        "meta_ephemeris_type": 0,
        "meta_classification_type": "U",
        "meta_norad_cat_id": 57400,
        "meta_element_set_no": 999,
        "meta_rev_at_epoch": 13252,
        "meta_bstar": 0.0003882907,
        "meta_mean_motion_dot": 0.00010536,
        "meta_mean_motion_ddot": 0,
        "tle_line1": "1 57400U 23101B   25342.63301526  .00010536  00000+0  38829-3 0  9992",
        "tle_line2": "2 57400  97.2866  32.3723 0007563  95.2963 264.9140 15.27965476132522"
      },
      "geometry": {
        "type": "Point",
        "coordinates": [
          -134.20440698756715,
          60.520310276450246
        ]
      }
    },
    {
      "type": "Feature",
      "properties": {
        "norad_id": 57401,
        "name": "TIANMU-1 09",
        "group": "weather",
        "lat": -10.928557010458729,
        "lon": -149.18590848398793,
        "alt_km": 486.79040892532066,
        "timestamp": "2025-12-08T23:34:03.612856+00:00",
        "meta_object_name": "TIANMU-1 09",
        "meta_object_id": "2023-101C",
        "meta_epoch": "2025-12-08T14:52:37.127424",
        "meta_mean_motion": 15.27991654,
        "meta_eccentricity": 0.00068207,
        "meta_inclination": 97.2822,
        "meta_ra_of_asc_node": 31.8751,
        "meta_arg_of_pericenter": 94.9033,
        "meta_mean_anomaly": 265.2985,
        "meta_ephemeris_type": 0,
        "meta_classification_type": "U",
        "meta_norad_cat_id": 57401,
        "meta_element_set_no": 999,
        "meta_rev_at_epoch": 13252,
        "meta_bstar": 0.00040236015,
        "meta_mean_motion_dot": 0.00010928,
        "meta_mean_motion_ddot": 0,
        "tle_line1": "1 57401U 23101C   25342.61987416  .00010928  00000+0  40236-3 0  9999",
        "tle_line2": "2 57401  97.2822  31.8751 0006820  94.9033 265.2985 15.27991654132527"
      },
      "geometry": {
        "type": "Point",
        "coordinates": [
          -149.18590848398793,
          -10.928557010458729
        ]
      }
    },
    {
      "type": "Feature",
      "properties": {
        "norad_id": 57402,
        "name": "TIANMU-1 10",
        "group": "weather",
        "lat": 2.6221033547290085,
        "lon": 32.738725079319835,
        "alt_km": 484.6888557982411,
        "timestamp": "2025-12-08T23:34:03.612866+00:00",
        "meta_object_name": "TIANMU-1 10",
        "meta_object_id": "2023-101D",
        "meta_epoch": "2025-12-08T14:07:33.148704",
        "meta_mean_motion": 15.27981656,
        "meta_eccentricity": 0.00085591,
        "meta_inclination": 97.2903,
        "meta_ra_of_asc_node": 32.6898,
        "meta_arg_of_pericenter": 95.2953,
        "meta_mean_anomaly": 264.9263,
        "meta_ephemeris_type": 0,
        "meta_classification_type": "U",
        "meta_norad_cat_id": 57402,
        "meta_element_set_no": 999,
        "meta_rev_at_epoch": 13251,
        "meta_bstar": 0.00038249752,
        "meta_mean_motion_dot": 0.00010385,
        "meta_mean_motion_ddot": 0,
        "tle_line1": "1 57402U 23101D   25342.58857811  .00010385  00000+0  38250-3 0  9991",
        "tle_line2": "2 57402  97.2903  32.6898 0008559  95.2953 264.9263 15.27981656132510"
      },
      "geometry": {
        "type": "Point",
        "coordinates": [
          32.738725079319835,
          2.6221033547290085
        ]
      }
    },
    {
      "type": "Feature",
      "properties": {
        "norad_id": 57490,
        "name": "FENGYUN 3F",
        "group": "weather",
        "lat": -74.49619034817482,
        "lon": 84.87922207562919,
        "alt_km": 833.4808382086585,
        "timestamp": "2025-12-08T23:34:03.612876+00:00",
        "meta_object_name": "FENGYUN 3F",
        "meta_object_id": "2023-111A",
        "meta_epoch": "2025-12-08T15:28:27.616512",
        "meta_mean_motion": 14.1989213,
        "meta_eccentricity": 6.636e-05,
        "meta_inclination": 98.709,
        "meta_ra_of_asc_node": 51.0042,
        "meta_arg_of_pericenter": 94.2688,
        "meta_mean_anomaly": 265.8564,
        "meta_ephemeris_type": 0,
        "meta_classification_type": "U",
        "meta_norad_cat_id": 57490,
        "meta_element_set_no": 999,
        "meta_rev_at_epoch": 12182,
        "meta_bstar": 0.00011702029,
        "meta_mean_motion_dot": 2.05e-06,
        "meta_mean_motion_ddot": 0,
        "tle_line1": "1 57490U 23111A   25342.64476408  .00000205  00000+0  11702-3 0  9998",
        "tle_line2": "2 57490  98.7090  51.0042 0000663  94.2688 265.8564 14.19892130121822"
      },
      "geometry": {
        "type": "Point",
        "coordinates": [
          84.87922207562919,
          -74.49619034817482
        ]
      }
    },
    {
      "type": "Feature",
      "properties": {
        "norad_id": 58584,
        "name": "ARKTIKA-M 2",
        "group": "weather",
        "lat": 58.1948792807599,
        "lon": -130.16383026057954,
        "alt_km": 34936.66897606582,
        "timestamp": "2025-12-08T23:34:03.612888+00:00",
        "meta_object_name": "ARKTIKA-M 2",
        "meta_object_id": "2023-198A",
        "meta_epoch": "2025-12-07T20:14:37.201632",
        "meta_mean_motion": 2.00604572,
        "meta_eccentricity": 0.68645726,
        "meta_inclination": 63.2245,
        "meta_ra_of_asc_node": 175.4245,
        "meta_arg_of_pericenter": 268.1228,
        "meta_mean_anomaly": 18.8285,
        "meta_ephemeris_type": 0,
        "meta_classification_type": "U",
        "meta_norad_cat_id": 58584,
        "meta_element_set_no": 999,
        "meta_rev_at_epoch": 1448,
        "meta_bstar": 0,
        "meta_mean_motion_dot": 1.69e-06,
        "meta_mean_motion_ddot": 0,
        "tle_line1": "1 58584U 23198A   25341.84348613  .00000169  00000+0  00000+0 0  9999",
        "tle_line2": "2 58584  63.2245 175.4245 6864572 268.1228  18.8285  2.00604572 14484"
      },
      "geometry": {
        "type": "Point",
        "coordinates": [
          -130.16383026057954,
          58.1948792807599
        ]
      }
    },
    {
      "type": "Feature",
      "properties": {
        "norad_id": 58645,
        "name": "TIANMU-1 11",
        "group": "weather",
        "lat": -48.261485025562024,
        "lon": 174.34017318624433,
        "alt_km": 499.7934490161406,
        "timestamp": "2025-12-08T23:34:03.612900+00:00",
        "meta_object_name": "TIANMU-1 11",
        "meta_object_id": "2023-205A",
        "meta_epoch": "2025-12-08T14:41:25.575648",
        "meta_mean_motion": 15.24522935,
        "meta_eccentricity": 0.00082805,
        "meta_inclination": 97.3606,
        "meta_ra_of_asc_node": 2.3078,
        "meta_arg_of_pericenter": 327.0835,
        "meta_mean_anomaly": 32.9886,
        "meta_ephemeris_type": 0,
        "meta_classification_type": "U",
        "meta_norad_cat_id": 58645,
        "meta_element_set_no": 999,
        "meta_rev_at_epoch": 10846,
        "meta_bstar": 0.00037477805,
        "meta_mean_motion_dot": 9.161e-05,
        "meta_mean_motion_ddot": 0,
        "tle_line1": "1 58645U 23205A   25342.61210157  .00009161  00000+0  37478-3 0  9997",
        "tle_line2": "2 58645  97.3606   2.3078 0008280 327.0835  32.9886 15.24522935108460"
      },
      "geometry": {
        "type": "Point",
        "coordinates": [
          174.34017318624433,
          -48.261485025562024
        ]
      }
    },
    {
      "type": "Feature",
      "properties": {
        "norad_id": 58646,
        "name": "TIANMU-1 12",
        "group": "weather",
        "lat": 79.6135020881275,
        "lon": -42.3627949475629,
        "alt_km": 488.12610198267794,
        "timestamp": "2025-12-08T23:34:03.612913+00:00",
        "meta_object_name": "TIANMU-1 12",
        "meta_object_id": "2023-205B",
        "meta_epoch": "2025-12-08T15:19:46.030944",
        "meta_mean_motion": 15.24403546,
        "meta_eccentricity": 0.00061216,
        "meta_inclination": 97.3593,
        "meta_ra_of_asc_node": 2.1409,
        "meta_arg_of_pericenter": 309.8252,
        "meta_mean_anomaly": 50.2447,
        "meta_ephemeris_type": 0,
        "meta_classification_type": "U",
        "meta_norad_cat_id": 58646,
        "meta_element_set_no": 999,
        "meta_rev_at_epoch": 10845,
        "meta_bstar": 0.00035423545,
        "meta_mean_motion_dot": 8.62e-05,
        "meta_mean_motion_ddot": 0,
        "tle_line1": "1 58646U 23205B   25342.63872721  .00008620  00000+0  35424-3 0  9999",
        "tle_line2": "2 58646  97.3593   2.1409 0006121 309.8252  50.2447 15.24403546108456"
      },
      "geometry": {
        "type": "Point",
        "coordinates": [
          -42.3627949475629,
          79.6135020881275
        ]
      }
    }
  ]
}